0 PSLV R/B
1 39093U 13009H   13282.56661445  .00000236  00000-0  78473-4 0  1839
2 39093 098.6470 117.4064 0046027 088.4683 272.1779 14.46003158 32618
0 PSLV R/B
1 39093U 13009H   13283.60455662  .00000215  00000-0  72585-4 0  1843
2 39093 098.6468 118.4641 0046070 085.5471 275.0985 14.46003539 32768
0 PSLV R/B
1 39093U 13009H   13286.16481008  .00000228  00000-0  76210-4 0  1865
2 39093 098.6471 121.0747 0046096 077.9813 282.6537 14.46005024 33132
0 PSLV R/B
1 39093U 13009H   13287.54872873  .00000255  00000-0  83759-4 0  1879
2 39093 098.6472 122.4858 0046121 073.8851 286.7405 14.46006029 33334
0 PSLV R/B
1 39093U 13009H   13288.79425483  .00000257  00000-0  84202-4 0  1885
2 39093 098.6473 123.7557 0046114 070.1501 290.4651 14.46006772 33519
0 PSLV R/B
1 39093U 13009H   13290.17817123  .00000255  00000-0  83681-4 0  1895
2 39093 098.6472 125.1662 0046144 066.1419 294.4592 14.46007626 33716
0 PSLV R/B
1 39093U 13009H   13291.56208545  .00000304  00000-0  97345-4 0  1900
2 39093 098.6472 126.5773 0046101 062.0329 298.5516 14.46008952 33918
0 PSLV R/B
1 39093U 13009H   13292.66921656  .00000293  00000-0  94322-4 0  1917
2 39093 098.6470 127.7054 0046079 058.7543 301.8148 14.46009619 34073
0 PSLV R/B
1 39093U 13009H   13293.84554216  .00000313  00000-0  99874-4 0  1923
2 39093 098.6469 128.9047 0046122 055.1987 305.3533 14.46010593 34247
0 PSLV R/B
1 39093U 13009H   13295.16025776  .00000309  00000-0  98641-4 0  1931
2 39093 098.6469 130.2447 0046122 051.2869 309.2429 14.46011505 34435
0 PSLV R/B
1 39093U 13009H   13296.19819056  .00000297  00000-0  95361-4 0  1940
2 39093 098.6468 131.3028 0046114 048.1200 312.3910 14.46012137 34584
